{"type": "FeatureCollection", "features": [ {"type": "Feature", "properties": {"norad_id": 44476, "name": "INTELSAT 39 (IS-39)", "group": "intelsat", "lat": -0.02884063983974452, "lon": -160.43057731197405, "alt_km": 35785.02332500529, "timestamp": "2025-12-13T03:42:10.948110+00:00", "meta": {"OBJECT_NAME": "INTELSAT 39 (IS-39)", "OBJECT_ID": "2019-049B", "EPOCH": "2025-12-11T23:25:15.903264", "MEAN_MOTION": 1.00267474, "ECCENTRICITY": 0.0001157, "INCLINATION": 0.0183, "RA_OF_ASC_NODE": 320.2601, "ARG_OF_PERICENTER": 176.2508, "MEAN_ANOMALY": 357.6803, "EPHEMERIS_TYPE": 0, "CLASSIFICATION_TYPE": "U", "NORAD_CAT_ID": 44476, "ELEMENT_SET_NO": 999, "REV_AT_EPOCH": 2325, "BSTAR": 0, "MEAN_MOTION_DOT": 4.3e-07, "MEAN_MOTION_DDOT": 0}, "tle": {"line1": "1 44476U 19049B   25345.97587851  .00000043  00000+0  00000+0 0  9992", "line2": "2 44476   0.0183 320.2601 0001157 176.2508 357.6803  1.00267474 23251"}}, "geometry": {"type": "Point", "coordinates": [-160.43057731197405, -0.02884063983974452]}}, {"type": "Feature", "properties": {"norad_id": 46114, "name": "GALAXY 30 (G-30)", "group": "intelsat", "lat": 0.019943249276347323, "lon": 12.65883383166175, "alt_km": 35789.154581105875, "timestamp": "2025-12-13T03:42:10.948122+00:00", "meta": {"OBJECT_NAME": "GALAXY 30 (G-30)", "OBJECT_ID": "2020-056C", "EPOCH": "2025-12-12T06:02:16.423008", "MEAN_MOTION": 1.00272766, "ECCENTRICITY": 0.00022451, "INCLINATION": 0.0132, "RA_OF_ASC_NODE": 333.7243, "ARG_OF_PERICENTER": 287.9124, "MEAN_ANOMALY": 145.1344, "EPHEMERIS_TYPE": 0, "CLASSIFICATION_TYPE": "U", "NORAD_CAT_ID": 46114, "ELEMENT_SET_NO": 999, "REV_AT_EPOCH": 1941, "BSTAR": 0, "MEAN_MOTION_DOT": 4.6e-07, "MEAN_MOTION_DDOT": 0}, "tle": {"line1": "1 46114U 20056C   25346.25157897  .00000046  00000+0  00000+0 0  9991", "line2": "2 46114   0.0132 333.7243 0002245 287.9124 145.1344  1.00272766 19413"}}, "geometry": {"type": "Point", "coordinates": [12.65883383166175, 0.019943249276347323]}}, {"type": "Feature", "properties": {"norad_id": 54026, "name": "GALAXY 33 (G-33)", "group": "intelsat", "lat": 0.0164104249390374, "lon": 4.651091139712691, "alt_km": 35788.9967230749, "timestamp": "2025-12-13T03:42:10.948134+00:00", "meta": {"OBJECT_NAME": "GALAXY 33 (G-33)", "OBJECT_ID": "2022-128A", "EPOCH": "2025-12-11T16:18:14.016960", "MEAN_MOTION": 1.00271184, "ECCENTRICITY": 0.0002031, "INCLINATION": 0.0122, "RA_OF_ASC_NODE": 329.7994, "ARG_OF_PERICENTER": 285.1983, "MEAN_ANOMALY": 297.1989, "EPHEMERIS_TYPE": 0, "CLASSIFICATION_TYPE": "U", "NORAD_CAT_ID": 54026, "ELEMENT_SET_NO": 999, "REV_AT_EPOCH": 1186, "BSTAR": 0, "MEAN_MOTION_DOT": 8.7e-07, "MEAN_MOTION_DDOT": 0}, "tle": {"line1": "1 54026U 22128A   25345.67932890  .00000087  00000+0  00000+0 0  9998", "line2": "2 54026   0.0122 329.7994 0002031 285.1983 297.1989  1.00271184 11864"}}, "geometry": {"type": "Point", "coordinates": [4.651091139712691, 0.0164104249390374]}}, {"type": "Feature", "properties": {"norad_id": 54027, "name": "GALAXY 34 (G-34)", "group": "intelsat", "lat": 0.020637649716959656, "lon": 8.703056074573814, "alt_km": 35789.148810642444, "timestamp": "2025-12-13T03:42:10.948146+00:00", "meta": {"OBJECT_NAME": "GALAXY 34 (G-34)", "OBJECT_ID": "2022-128B", "EPOCH": "2025-12-11T16:19:21.409824", "MEAN_MOTION": 1.00269841, "ECCENTRICITY": 0.0001404, "INCLINATION": 0.0224, "RA_OF_ASC_NODE": 340.3184, "ARG_OF_PERICENTER": 271.9035, "MEAN_ANOMALY": 304.3231, "EPHEMERIS_TYPE": 0, "CLASSIFICATION_TYPE": "U", "NORAD_CAT_ID": 54027, "ELEMENT_SET_NO": 999, "REV_AT_EPOCH": 1203, "BSTAR": 0, "MEAN_MOTION_DOT": 0, "MEAN_MOTION_DDOT": 0}, "tle": {"line1": "1 54027U 22128B   25345.68010891  .00000000  00000+0  00000+0 0  9993", "line2": "2 54027   0.0224 340.3184 0001404 271.9035 304.3231  1.00269841 12030"}}, "geometry": {"type": "Point", "coordinates": [8.703056074573814, 0.020637649716959656]}}, {"type": "Feature", "properties": {"norad_id": 54243, "name": "GALAXY 31 (G-31)", "group": "intelsat", "lat": 0.021514439151246033, "lon": 16.65061531962018, "alt_km": 35787.950482352164, "timestamp": "2025-12-13T03:42:10.948158+00:00", "meta": {"OBJECT_NAME": "GALAXY 31 (G-31)", "OBJECT_ID": "2022-153A", "EPOCH": "2025-12-12T06:03:23.815008", "MEAN_MOTION": 1.00271471, "ECCENTRICITY": 0.00016914, "INCLINATION": 0.0142, "RA_OF_ASC_NODE": 275.9057, "ARG_OF_PERICENTER": 356.0007, "MEAN_ANOMALY": 139.1476, "EPHEMERIS_TYPE": 0, "CLASSIFICATION_TYPE": "U", "NORAD_CAT_ID": 54243, "ELEMENT_SET_NO": 999, "REV_AT_EPOCH": 525, "BSTAR": 0, "MEAN_MOTION_DOT": 2.3e-07, "MEAN_MOTION_DDOT": 0}, "tle": {"line1": "1 54243U 22153A   25346.25235897  .00000023  00000+0  00000+0 0  9995", "line2": "2 54243   0.0142 275.9057 0001691 356.0007 139.1476  1.00271471  5256"}}, "geometry": {"type": "Point", "coordinates": [16.65061531962018, 0.021514439151246033]}}, {"type": "Feature", "properties": {"norad_id": 54244, "name": "GALAXY 32 (G-32)", "group": "intelsat", "lat": 0.021902874786207994, "lon": 46.64169016511458, "alt_km": 35787.4607099959, "timestamp": "2025-12-13T03:42:10.948169+00:00", "meta": {"OBJECT_NAME": "GALAXY 32 (G-32)", "OBJECT_ID": "2022-153B", "EPOCH": "2025-12-11T19:55:38.198208", "MEAN_MOTION": 1.00270455, "ECCENTRICITY": 0.0002716, "INCLINATION": 0.0095, "RA_OF_ASC_NODE": 3.9095, "ARG_OF_PERICENTER": 308.1779, "MEAN_ANOMALY": 336.5954, "EPHEMERIS_TYPE": 0, "CLASSIFICATION_TYPE": "U", "NORAD_CAT_ID": 54244, "ELEMENT_SET_NO": 999, "REV_AT_EPOCH": 1126, "BSTAR": 0, "MEAN_MOTION_DOT": -1.66e-06, "MEAN_MOTION_DDOT": 0}, "tle": {"line1": "1 54244U 22153B   25345.83030322 -.00000166  00000+0  00000+0 0  9994", "line2": "2 54244   0.0095   3.9095 0002716 308.1779 336.5954  1.00270455 11261"}}, "geometry": {"type": "Point", "coordinates": [46.64169016511458, 0.021902874786207994]}}, {"type": "Feature", "properties": {"norad_id": 54741, "name": "GALAXY 35 (G-35)", "group": "intelsat", "lat": 0.020056727782432282, "lon": 44.554858932644386, "alt_km": 35794.050079113156, "timestamp": "2025-12-13T03:42:10.948181+00:00", "meta": {"OBJECT_NAME": "GALAXY 35 (G-35)", "OBJECT_ID": "2022-170A", "EPOCH": "2025-12-12T06:11:23.049888", "MEAN_MOTION": 1.00271242, "ECCENTRICITY": 0.00024863, "INCLINATION": 0.0138, "RA_OF_ASC_NODE": 271.307, "ARG_OF_PERICENTER": 355.6347, "MEAN_ANOMALY": 174.0196, "EPHEMERIS_TYPE": 0, "CLASSIFICATION_TYPE": "U", "NORAD_CAT_ID": 54741, "ELEMENT_SET_NO": 999, "REV_AT_EPOCH": 1101, "BSTAR": 0, "MEAN_MOTION_DOT": -1.52e-06, "MEAN_MOTION_DDOT": 0}, "tle": {"line1": "1 54741U 22170A   25346.25790567 -.00000152  00000+0  00000+0 0  9991", "line2": "2 54741   0.0138 271.3070 0002486 355.6347 174.0196  1.00271242 11018"}}, "geometry": {"type": "Point", "coordinates": [44.554858932644386, 0.020056727782432282]}}, {"type": "Feature", "properties": {"norad_id": 54742, "name": "GALAXY 36 (G-36)", "group": "intelsat", "lat": 0.005657225644096928, "lon": 48.63681564517072, "alt_km": 35786.70389221963, "timestamp": "2025-12-13T03:42:10.948192+00:00", "meta": {"OBJECT_NAME": "GALAXY 36 (G-36)", "OBJECT_ID": "2022-170B", "EPOCH": "2025-12-12T06:12:30.442752", "MEAN_MOTION": 1.00272255, "ECCENTRICITY": 3.817e-05, "INCLINATION": 0.0297, "RA_OF_ASC_NODE": 118.7266, "ARG_OF_PERICENTER": 174.1919, "MEAN_ANOMALY": 152.4184, "EPHEMERIS_TYPE": 0, "CLASSIFICATION_TYPE": "U", "NORAD_CAT_ID": 54742, "ELEMENT_SET_NO": 999, "REV_AT_EPOCH": 1089, "BSTAR": 0, "MEAN_MOTION_DOT": -1.75e-06, "MEAN_MOTION_DDOT": 0}, "tle": {"line1": "1 54742U 22170B   25346.25868568 -.00000175  00000+0  00000+0 0  9994", "line2": "2 54742   0.0297 118.7266 0000381 174.1919 152.4184  1.00272255 10894"}}, "geometry": {"type": "Point", "coordinates": [48.63681564517072, 0.005657225644096928]}}, {"type": "Feature", "properties": {"norad_id": 57493, "name": "GALAXY 37 (G-37)", "group": "intelsat", "lat": 0.0021773800121860244, "lon": 10.654983774557746, "alt_km": 35788.41880812513, "timestamp": "2025-12-13T03:42:10.948204+00:00", "meta": {"OBJECT_NAME": "GALAXY 37 (G-37)", "OBJECT_ID": "2023-112A", "EPOCH": "2025-12-12T06:01:38.981568", "MEAN_MOTION": 1.00271569, "ECCENTRICITY": 0.00021597, "INCLINATION": 0.013, "RA_OF_ASC_NODE": 30.1823, "ARG_OF_PERICENTER": 235.6604, "MEAN_ANOMALY": 138.772, "EPHEMERIS_TYPE": 0, "CLASSIFICATION_TYPE": "U", "NORAD_CAT_ID": 57493, "ELEMENT_SET_NO": 999, "REV_AT_EPOCH": 866, "BSTAR": 0, "MEAN_MOTION_DOT": 5.8e-07, "MEAN_MOTION_DDOT": 0}, "tle": {"line1": "1 57493U 23112A   25346.25114562  .00000058  00000+0  00000+0 0  9994", "line2": "2 57493   0.0130  30.1823 0002159 235.6604 138.7720  1.00271569  8663"}}, "geometry": {"type": "Point", "coordinates": [10.654983774557746, 0.0021773800121860244]}}]}